[
    {
        "Altitude(m)": 607895.8152839207,
        "Argument of Periapsis(deg)": 0.0,
        "Eccentricity": 0.0,
        "Inclination(deg)": 60.0,
        "Latitude(deg)": 40.998333901578214,
        "Longitude(deg)": 0.08855873158854767,
        "Mean Anomaly(deg)": -229.09089999999998,
        "RAAN(deg)": 310.0,
        "Satellite Name": "Test1 1372",
        "Satellite Number": 1372,
        "Semi-Major Axis(m)": 6980739.136638005,
        "Time(s)": 0
    },
    {
        "Altitude(m)": 607795.1284537634,
        "Argument of Periapsis(deg)": 0.00010418945913296404,
        "Eccentricity": 0.0,
        "Inclination(deg)": 60.0,
        "Latitude(deg)": 40.53065903225075,
        "Longitude(deg)": 0.5851539496955229,
        "Mean Anomaly(deg)": -228.47079385453813,
        "RAAN(deg)": 309.99957995086027,
        "Satellite Name": "Test1 1372",
        "Satellite Number": 1372,
        "Semi-Major Axis(m)": 6980739.136638005,
        "Time(s)": 10
    },
    {
        "Altitude(m)": 607694.6171676856,
        "Argument of Periapsis(deg)": 0.0002083789182659281,
        "Eccentricity": 0.0,
        "Inclination(deg)": 60.0,
        "Latitude(deg)": 40.06047419941948,
        "Longitude(deg)": 1.0743082950448548,
        "Mean Anomaly(deg)": -227.85068770907634,
        "RAAN(deg)": 309.99915990172053,
        "Satellite Name": "Test1 1372",
        "Satellite Number": 1372,
        "Semi-Major Axis(m)": 6980739.136638005,
        "Time(s)": 20
    },
    {
        "Altitude(m)": 607594.3451242953,
        "Argument of Periapsis(deg)": 0.00031256837739889213,
        "Eccentricity": 0.0,
        "Inclination(deg)": 60.0,
        "Latitude(deg)": 39.58785297705604,
        "Longitude(deg)": 1.5562073728173287,
        "Mean Anomaly(deg)": -227.2305815636145,
        "RAAN(deg)": 309.9987398525808,
        "Satellite Name": "Test1 1372",
        "Satellite Number": 1372,
        "Semi-Major Axis(m)": 6980739.136638005,
        "Time(s)": 30
    },
    {
        "Altitude(m)": 607494.3761225311,
        "Argument of Periapsis(deg)": 0.0004167578365318562,
        "Eccentricity": 0.0,
        "Inclination(deg)": 60.0,
        "Latitude(deg)": 39.11286669897368,
        "Longitude(deg)": 2.031033748327937,
        "Mean Anomaly(deg)": -226.61047541815267,
        "RAAN(deg)": 309.99831980344106,
        "Satellite Name": "Test1 1372",
        "Satellite Number": 1372,
        "Semi-Major Axis(m)": 6980739.136638005,
        "Time(s)": 40
    },
    {
        "Altitude(m)": 607394.7740298004,
        "Argument of Periapsis(deg)": 0.0005209472956648203,
        "Eccentricity": 0.0,
        "Inclination(deg)": 60.0,
        "Latitude(deg)": 38.63558453218501,
        "Longitude(deg)": 2.498965926576928,
        "Mean Anomaly(deg)": -225.99036927269083,
        "RAAN(deg)": 309.99789975430133,
        "Satellite Name": "Test1 1372",
        "Satellite Number": 1372,
        "Semi-Major Axis(m)": 6980739.136638005,
        "Time(s)": 50
    },
    {
        "Altitude(m)": 607295.6027499744,
        "Argument of Periapsis(deg)": 0.0006251367547977843,
        "Eccentricity": 0.0,
        "Inclination(deg)": 60.0,
        "Latitude(deg)": 38.156073548723064,
        "Longitude(deg)": 2.960178855490505,
        "Mean Anomaly(deg)": -225.37026312722904,
        "RAAN(deg)": 309.99747970516154,
        "Satellite Name": "Test1 1372",
        "Satellite Number": 1372,
        "Semi-Major Axis(m)": 6980739.136638005,
        "Time(s)": 60
    },
    {
        "Altitude(m)": 607196.9261913095,
        "Argument of Periapsis(deg)": 0.0007293262139307483,
        "Eccentricity": 0.0,
        "Inclination(deg)": 60.0,
        "Latitude(deg)": 37.674398795854856,
        "Longitude(deg)": 3.4148444388470858,
        "Mean Anomaly(deg)": -224.7501569817672,
        "RAAN(deg)": 309.99705965602186,
        "Satellite Name": "Test1 1372",
        "Satellite Number": 1372,
        "Semi-Major Axis(m)": 6980739.136638005,
        "Time(s)": 70
    },
    {
        "Altitude(m)": 607098.8082343425,
        "Argument of Periapsis(deg)": 0.0008335156730637124,
        "Eccentricity": 0.0,
        "Inclination(deg)": 60.0,
        "Latitude(deg)": 37.19062336463155,
        "Longitude(deg)": 3.8631305449689126,
        "Mean Anomaly(deg)": -224.13005083630537,
        "RAAN(deg)": 309.99663960688207,
        "Satellite Name": "Test1 1372",
        "Satellite Number": 1372,
        "Semi-Major Axis(m)": 6980739.136638005,
        "Time(s)": 80
    },
    {
        "Altitude(m)": 607001.3126997289,
        "Argument of Periapsis(deg)": 0.0009377051321966765,
        "Eccentricity": 0.0,
        "Inclination(deg)": 60.0,
        "Latitude(deg)": 36.70480845674116,
        "Longitude(deg)": 4.305201535964716,
        "Mean Anomaly(deg)": -223.50994469084353,
        "RAAN(deg)": 309.9962195577423,
        "Satellite Name": "Test1 1372",
        "Satellite Number": 1372,
        "Semi-Major Axis(m)": 6980739.136638005,
        "Time(s)": 90
    },
    {
        "Altitude(m)": 606904.5033160442,
        "Argument of Periapsis(deg)": 0.0010418945913296407,
        "Eccentricity": 0.0,
        "Inclination(deg)": 60.0,
        "Latitude(deg)": 36.21701344963397,
        "Longitude(deg)": 4.7412188037670235,
        "Mean Anomaly(deg)": -222.88983854538165,
        "RAAN(deg)": 309.99579950860254,
        "Satellite Name": "Test1 1372",
        "Satellite Number": 1372,
        "Semi-Major Axis(m)": 6980739.136638005,
        "Time(s)": 100
    },
    {
        "Altitude(m)": 606808.4436876171,
        "Argument of Periapsis(deg)": 0.0011460840504626045,
        "Eccentricity": 0.0,
        "Inclination(deg)": 60.0,
        "Latitude(deg)": 35.727295959899735,
        "Longitude(deg)": 5.171339799281843,
        "Mean Anomaly(deg)": -222.2697323999199,
        "RAAN(deg)": 309.9953794594628,
        "Satellite Name": "Test1 1372",
        "Satellite Number": 1372,
        "Semi-Major Axis(m)": 6980739.136638005,
        "Time(s)": 110
    },
    {
        "Altitude(m)": 606713.1972623199,
        "Argument of Periapsis(deg)": 0.0012502735095955685,
        "Eccentricity": 0.0,
        "Inclination(deg)": 60.0,
        "Latitude(deg)": 35.235711904894266,
        "Longitude(deg)": 5.595718579657648,
        "Mean Anomaly(deg)": -221.649626254458,
        "RAAN(deg)": 309.9949594103231,
        "Satellite Name": "Test1 1372",
        "Satellite Number": 1372,
        "Semi-Major Axis(m)": 6980739.136638005,
        "Time(s)": 120
    },
    {
        "Altitude(m)": 606618.8272993977,
        "Argument of Periapsis(deg)": 0.0013544629687285324,
        "Eccentricity": 0.0,
        "Inclination(deg)": 60.0,
        "Latitude(deg)": 34.74231556261377,
        "Longitude(deg)": 6.0145063601229705,
        "Mean Anomaly(deg)": -221.0295201089962,
        "RAAN(deg)": 309.99453936118334,
        "Satellite Name": "Test1 1372",
        "Satellite Number": 1372,
        "Semi-Major Axis(m)": 6980739.136638005,
        "Time(s)": 130
    },
    {
        "Altitude(m)": 606525.3968373623,
        "Argument of Periapsis(deg)": 0.0014586524278614966,
        "Eccentricity": 0.0,
        "Inclination(deg)": 60.0,
        "Latitude(deg)": 34.24715962981858,
        "Longitude(deg)": 6.427850556905843,
        "Mean Anomaly(deg)": -220.40941396353435,
        "RAAN(deg)": 309.9941193120436,
        "Satellite Name": "Test1 1372",
        "Satellite Number": 1372,
        "Semi-Major Axis(m)": 6980739.136638005,
        "Time(s)": 140
    },
    {
        "Altitude(m)": 606432.9686618983,
        "Argument of Periapsis(deg)": 0.0015628418869944607,
        "Eccentricity": 0.0,
        "Inclination(deg)": 60.0,
        "Latitude(deg)": 33.7502952784281,
        "Longitude(deg)": 6.835895346418046,
        "Mean Anomaly(deg)": -219.7893078180725,
        "RAAN(deg)": 309.9936992629039,
        "Satellite Name": "Test1 1372",
        "Satellite Number": 1372,
        "Semi-Major Axis(m)": 6980739.136638005,
        "Time(s)": 150
    },
    {
        "Altitude(m)": 606341.6052738681,
        "Argument of Periapsis(deg)": 0.0016670313461274247,
        "Eccentricity": 0.0,
        "Inclination(deg)": 60.0,
        "Latitude(deg)": 33.25177221019978,
        "Longitude(deg)": 7.2387822273246,
        "Mean Anomaly(deg)": -219.1692016726107,
        "RAAN(deg)": 309.99327921376414,
        "Satellite Name": "Test1 1372",
        "Satellite Number": 1372,
        "Semi-Major Axis(m)": 6980739.136638005,
        "Time(s)": 160
    },
    {
        "Altitude(m)": 606251.3688573915,
        "Argument of Periapsis(deg)": 0.0017712208052603888,
        "Eccentricity": 0.0,
        "Inclination(deg)": 60.0,
        "Latitude(deg)": 32.75163870971399,
        "Longitude(deg)": 7.636649072162441,
        "Mean Anomaly(deg)": -218.5490955271489,
        "RAAN(deg)": 309.99285916462435,
        "Satellite Name": "Test1 1372",
        "Satellite Number": 1372,
        "Semi-Major Axis(m)": 6980739.136638005,
        "Time(s)": 170
    },
    {
        "Altitude(m)": 606162.3212480196,
        "Argument of Periapsis(deg)": 0.001875410264393353,
        "Eccentricity": 0.0,
        "Inclination(deg)": 60.0,
        "Latitude(deg)": 32.249941695696094,
        "Longitude(deg)": 8.029630693837786,
        "Mean Anomaly(deg)": -217.92898938168705,
        "RAAN(deg)": 309.9924391154846,
        "Satellite Name": "Test1 1372",
        "Satellite Number": 1372,
        "Semi-Major Axis(m)": 6980739.136638005,
        "Time(s)": 180
    },
    {
        "Altitude(m)": 606074.5239010344,
        "Argument of Periapsis(deg)": 0.0019795997235263173,
        "Eccentricity": 0.0,
        "Inclination(deg)": 60.0,
        "Latitude(deg)": 31.746726770703994,
        "Longitude(deg)": 8.417859413752721,
        "Mean Anomaly(deg)": -217.30888323622526,
        "RAAN(deg)": 309.9920190663449,
        "Satellite Name": "Test1 1372",
        "Satellite Number": 1372,
        "Semi-Major Axis(m)": 6980739.136638005,
        "Time(s)": 190
    }
]